ONEWEB-0311             
1 49097U 21075Y   26193.53439341  .00000029  00000+0  40379-4 0  9994
2 49097  87.9140   0.8199 0001739  73.9254 286.2069 13.17648154236966
ONEWEB-0312             
1 49098U 21075Z   26193.47365111 -.00000022  00000+0 -90709-4 0  9998
2 49098  87.9131   0.8431 0001974  81.3930 278.7425 13.17648292236933
ONEWEB-0313             
1 49099U 21075AA  26193.47856772  .00000086  00000+0  18707-3 0  9992
2 49099  87.9123   0.8454 0001765  87.8506 272.2828 13.17650577236922
ONEWEB-0314             
1 49100U 21075AB  26193.52103785 -.00019561  00000+0 -50631-1 0  9990
2 49100  87.9162   0.8119 0001475  75.4447 284.6848 13.17503355236909
ONEWEB-0315             
1 49101U 21075AC  26193.44300587 -.00000276  00000+0 -80125-3 0  9997
2 49101  87.8967 345.6235 0001667  84.3948 275.7371 13.12442040238484
ONEWEB-0316             
1 49102U 21075AD  26192.81880941  .00001932  00000+0  48682-2 0  9994
2 49102  87.9207 330.5592 0002419 107.1739 252.9658 13.18668336240459
ONEWEB-0317             
1 49103U 21075AE  26193.44639431 -.00000319  00000+0 -92351-3 0  9994
2 49103  87.8963 345.6462 0002440 109.5683 250.5709 13.12442302238500
ONEWEB-0318             
1 49104U 21075AF  26193.34644037  .00000049  00000+0  90677-4 0  9990
2 49104  87.9191 330.4543 0001828  91.0866 269.0476 13.18686565240487
ONEWEB-0319             
1 49105U 21075AG  26193.46014176  .00000049  00000+0  91992-4 0  9990
2 49105  87.9151   0.8399 0001750  85.1173 275.0158 13.17647868236931
ONEWEB-0323             
1 49106U 21075AH  26193.42776503  .00000240  00000+0  63189-3 0  9995
2 49106  87.8968 345.6314 0001754  78.1065 282.0260 13.12442107237869
ONEWEB-0329             
1 49107U 21075AJ  26193.46857556  .00000034  00000+0  55670-4 0  9996
2 49107  87.9142   0.8391 0001921  87.2735 272.8617 13.17650525236919
ONEWEB-0330             
1 49108U 21075AK  26193.47207589  .00000050  00000+0  94872-4 0  9998
2 49108  87.9143   0.8495 0002027  89.3316 270.8048 13.17647263236957
ONEWEB-0292             
1 49186U 21083A   26192.84709471  .00000020  00000+0  18938-4 0  9996
2 49186  87.8972 315.3295 0001855  95.2017 264.9324 13.13470926234164
ONEWEB-0303             
1 49187U 21083B   26193.34305240 -.00000197  00000+0 -53187-3 0  9990
2 49187  87.9194 330.4536 0001820  92.3571 267.7770 13.18685182233299
ONEWEB-0306             
1 49188U 21083C   26193.33294653  .00000096  00000+0  21097-3 0  9996
2 49188  87.9195 330.4439 0002079 100.0652 260.0715 13.18684991233334
ONEWEB-0307             
1 49189U 21083D   26192.84115704 -.00000165  00000+0 -48545-3 0  9997
2 49189  87.8973 315.3288 0001850  96.1041 264.0299 13.13472092234160
